[{"OBJECT_NAME":"NIGHTJAR","OBJECT_ID":"2024-149BV","EPOCH":"2026-03-09T15:29:33.054144","MEAN_MOTION":14.9839881,"ECCENTRICITY":0.00023928,"INCLINATION":97.6919,"RA_OF_ASC_NODE":146.7603,"ARG_OF_PERICENTER":83.3363,"MEAN_ANOMALY":276.8132,"EPHEMERIS_TYPE":0,"CLASSIFICATION_TYPE":"U","NORAD_CAT_ID":60535,"ELEMENT_SET_NO":999,"REV_AT_EPOCH":12796,"BSTAR":0.00036343971,"MEAN_MOTION_DOT":4.278e-5,"MEAN_MOTION_DDOT":0},{"OBJECT_NAME":"STARLINK-34507","OBJECT_ID":"2025-129AB","EPOCH":"2026-03-09T23:29:09.257568","MEAN_MOTION":14.98355595,"ECCENTRICITY":0.0002128,"INCLINATION":70,"RA_OF_ASC_NODE":73.6013,"ARG_OF_PERICENTER":228.6362,"MEAN_ANOMALY":131.4614,"EPHEMERIS_TYPE":0,"CLASSIFICATION_TYPE":"U","NORAD_CAT_ID":64437,"ELEMENT_SET_NO":999,"REV_AT_EPOCH":4133,"BSTAR":0.00029522686,"MEAN_MOTION_DOT":3.434e-5,"MEAN_MOTION_DDOT":0}]
